{
  "type": "FeatureCollection",
  "features": [
    {
      "type": "Feature",
      "properties": {
        "norad_id": 34492,
        "name": "IRIDIUM 33 DEB",
        "group": "iridium-33-debris",
        "lat": -1.9768676571263428,
        "lon": -25.72609386186972,
        "alt_km": 879.0619054503613,
        "timestamp": "2025-12-13T07:35:41.890305+00:00",
        "meta_object_name": "IRIDIUM 33 DEB",
        "meta_object_id": "1997-051GH",
        "meta_epoch": "2025-12-12T23:19:24.163680",
        "meta_mean_motion": 14.25737057,
        "meta_eccentricity": 0.01891196,
        "meta_inclination": 86.4723,
        "meta_ra_of_asc_node": 334.5351,
        "meta_arg_of_pericenter": 237.4159,
        "meta_mean_anomaly": 151.0038,
        "meta_ephemeris_type": 0,
        "meta_classification_type": "U",
        "meta_norad_cat_id": 34492,
        "meta_element_set_no": 999,
        "meta_rev_at_epoch": 85062,
        "meta_bstar": 0.0063651158,
        "meta_mean_motion_dot": 0.00018276,
        "meta_mean_motion_ddot": 0,
        "tle_line1": "1 34492U 97051GH  25346.97180745  .00018276  00000+0  63651-2 0  9991",
        "tle_line2": "2 34492  86.4723 334.5351 0189119 237.4159 151.0038 14.25737057850628"
      },
      "geometry": {
        "type": "Point",
        "coordinates": [
          -25.72609386186972,
          -1.9768676571263428
        ]
      }
    },
    {
      "type": "Feature",
      "properties": {
        "norad_id": 34497,
        "name": "IRIDIUM 33 DEB",
        "group": "iridium-33-debris",
        "lat": -57.185853312866726,
        "lon": -122.05079326619476,
        "alt_km": 817.2033040930064,
        "timestamp": "2025-12-13T07:35:41.890315+00:00",
        "meta_object_name": "IRIDIUM 33 DEB",
        "meta_object_id": "1997-051GN",
        "meta_epoch": "2025-12-12T22:54:15.485760",
        "meta_mean_motion": 14.27454952,
        "meta_eccentricity": 0.00787666,
        "meta_inclination": 86.2781,
        "meta_ra_of_asc_node": 52.31,
        "meta_arg_of_pericenter": 338.886,
        "meta_mean_anomaly": 199.6428,
        "meta_ephemeris_type": 0,
        "meta_classification_type": "U",
        "meta_norad_cat_id": 34497,
        "meta_element_set_no": 999,
        "meta_rev_at_epoch": 86886,
        "meta_bstar": 0.00092375245,
        "meta_mean_motion_dot": 2.36e-05,
        "meta_mean_motion_ddot": 0,
        "tle_line1": "1 34497U 97051GN  25346.95434590  .00002360  00000+0  92375-3 0  9997",
        "tle_line2": "2 34497  86.2781  52.3100 0078766 338.8860 199.6428 14.27454952868860"
      },
      "geometry": {
        "type": "Point",
        "coordinates": [
          -122.05079326619476,
          -57.185853312866726
        ]
      }
    },
    {
      "type": "Feature",
      "properties": {
        "norad_id": 34508,
        "name": "IRIDIUM 33 DEB",
        "group": "iridium-33-debris",
        "lat": 58.045792822275075,
        "lon": 108.24019992757428,
        "alt_km": 776.1908613856922,
        "timestamp": "2025-12-13T07:35:41.890324+00:00",
        "meta_object_name": "IRIDIUM 33 DEB",
        "meta_object_id": "1997-051GZ",
        "meta_epoch": "2025-12-12T17:57:57.853728",
        "meta_mean_motion": 14.3842932,
        "meta_eccentricity": 0.00660592,
        "meta_inclination": 86.3696,
        "meta_ra_of_asc_node": 102.6391,
        "meta_arg_of_pericenter": 172.9661,
        "meta_mean_anomaly": 187.2481,
        "meta_ephemeris_type": 0,
        "meta_classification_type": "U",
        "meta_norad_cat_id": 34508,
        "meta_element_set_no": 999,
        "meta_rev_at_epoch": 87309,
        "meta_bstar": 0.002129503,
        "meta_mean_motion_dot": 6.683e-05,
        "meta_mean_motion_ddot": 0,
        "tle_line1": "1 34508U 97051GZ  25346.74858627  .00006683  00000+0  21295-2 0  9992",
        "tle_line2": "2 34508  86.3696 102.6391 0066059 172.9661 187.2481 14.38429320873094"
      },
      "geometry": {
        "type": "Point",
        "coordinates": [
          108.24019992757428,
          58.045792822275075
        ]
      }
    },
    {
      "type": "Feature",
      "properties": {
        "norad_id": 34521,
        "name": "IRIDIUM 33 DEB",
        "group": "iridium-33-debris",
        "lat": -71.22662356624504,
        "lon": 19.561531871487933,
        "alt_km": 689.4487600541006,
        "timestamp": "2025-12-13T07:35:41.890335+00:00",
        "meta_object_name": "IRIDIUM 33 DEB",
        "meta_object_id": "1997-051HN",
        "meta_epoch": "2025-12-12T20:26:01.801536",
        "meta_mean_motion": 14.6337022,
        "meta_eccentricity": 0.00015553,
        "meta_inclination": 86.3804,
        "meta_ra_of_asc_node": 30.4988,
        "meta_arg_of_pericenter": 212.1757,
        "meta_mean_anomaly": 147.936,
        "meta_ephemeris_type": 0,
        "meta_classification_type": "U",
        "meta_norad_cat_id": 34521,
        "meta_element_set_no": 999,
        "meta_rev_at_epoch": 88474,
        "meta_bstar": 0.0012860068,
        "meta_mean_motion_dot": 6.666e-05,
        "meta_mean_motion_ddot": 0,
        "tle_line1": "1 34521U 97051HN  25346.85140974  .00006666  00000+0  12860-2 0  9997",
        "tle_line2": "2 34521  86.3804  30.4988 0001555 212.1757 147.9360 14.63370220884748"
      },
      "geometry": {
        "type": "Point",
        "coordinates": [
          19.561531871487933,
          -71.22662356624504
        ]
      }
    },
    {
      "type": "Feature",
      "properties": {
        "norad_id": 34525,
        "name": "IRIDIUM 33 DEB",
        "group": "iridium-33-debris",
        "lat": 64.73565621434187,
        "lon": 54.32158892497511,
        "alt_km": 738.5004132432696,
        "timestamp": "2025-12-13T07:35:41.890344+00:00",
        "meta_object_name": "IRIDIUM 33 DEB",
        "meta_object_id": "1997-051HS",
        "meta_epoch": "2025-12-12T15:21:36.053568",
        "meta_mean_motion": 14.42905953,
        "meta_eccentricity": 0.00066523,
        "meta_inclination": 86.373,
        "meta_ra_of_asc_node": 46.8862,
        "meta_arg_of_pericenter": 95.5071,
        "meta_mean_anomaly": 57.9637,
        "meta_ephemeris_type": 0,
        "meta_classification_type": "U",
        "meta_norad_cat_id": 34525,
        "meta_element_set_no": 999,
        "meta_rev_at_epoch": 88086,
        "meta_bstar": 0.00058911832,
        "meta_mean_motion_dot": 1.988e-05,
        "meta_mean_motion_ddot": 0,
        "tle_line1": "1 34525U 97051HS  25346.64000062  .00001988  00000+0  58912-3 0  9992",
        "tle_line2": "2 34525  86.3730  46.8862 0006652  95.5071  57.9637 14.42905953880867"
      },
      "geometry": {
        "type": "Point",
        "coordinates": [
          54.32158892497511,
          64.73565621434187
        ]
      }
    },
    {
      "type": "Feature",
      "properties": {
        "norad_id": 34529,
        "name": "IRIDIUM 33 DEB",
        "group": "iridium-33-debris",
        "lat": -44.825001809465206,
        "lon": 31.542724285437785,
        "alt_km": 765.9170461652411,
        "timestamp": "2025-12-13T07:35:41.890353+00:00",
        "meta_object_name": "IRIDIUM 33 DEB",
        "meta_object_id": "1997-051HW",
        "meta_epoch": "2025-12-12T21:48:04.696416",
        "meta_mean_motion": 14.40616063,
        "meta_eccentricity": 0.00048321,
        "meta_inclination": 86.3641,
        "meta_ra_of_asc_node": 35.34,
        "meta_arg_of_pericenter": 176.2379,
        "meta_mean_anomaly": 183.8857,
        "meta_ephemeris_type": 0,
        "meta_classification_type": "U",
        "meta_norad_cat_id": 34529,
        "meta_element_set_no": 999,
        "meta_rev_at_epoch": 88144,
        "meta_bstar": 0.00017131661,
        "meta_mean_motion_dot": 5.66e-06,
        "meta_mean_motion_ddot": 0,
        "tle_line1": "1 34529U 97051HW  25346.90838769  .00000566  00000+0  17132-3 0  9998",
        "tle_line2": "2 34529  86.3641  35.3400 0004832 176.2379 183.8857 14.40616063881446"
      },
      "geometry": {
        "type": "Point",
        "coordinates": [
          31.542724285437785,
          -44.825001809465206
        ]
      }
    },
    {
      "type": "Feature",
      "properties": {
        "norad_id": 34538,
        "name": "IRIDIUM 33 DEB",
        "group": "iridium-33-debris",
        "lat": 23.494975772338577,
        "lon": -176.31845595294402,
        "alt_km": 772.3283418428218,
        "timestamp": "2025-12-13T07:35:41.890363+00:00",
        "meta_object_name": "IRIDIUM 33 DEB",
        "meta_object_id": "1997-051JF",
        "meta_epoch": "2025-12-12T19:29:58.055136",
        "meta_mean_motion": 14.42648871,
        "meta_eccentricity": 0.0032777,
        "meta_inclination": 86.2773,
        "meta_ra_of_asc_node": 5.524,
        "meta_arg_of_pericenter": 327.8022,
        "meta_mean_anomaly": 92.8362,
        "meta_ephemeris_type": 0,
        "meta_classification_type": "U",
        "meta_norad_cat_id": 34538,
        "meta_element_set_no": 999,
        "meta_rev_at_epoch": 87757,
        "meta_bstar": 0.0014020322,
        "meta_mean_motion_dot": 4.708e-05,
        "meta_mean_motion_ddot": 0,
        "tle_line1": "1 34538U 97051JF  25346.81247749  .00004708  00000+0  14020-2 0  9994",
        "tle_line2": "2 34538  86.2773   5.5240 0032777 327.8022  92.8362 14.42648871877573"
      },
      "geometry": {
        "type": "Point",
        "coordinates": [
          -176.31845595294402,
          23.494975772338577
        ]
      }
    }
  ]
}